NORAD_CAT_ID,OBJECT_NAME,OBJECT_TYPE,EPOCH,MEAN_MOTION,ECCENTRICITY,INCLINATION,RA_OF_ASC_NODE,ARG_OF_PERICENTER,MEAN_ANOMALY,BSTAR,MEAN_MOTION_DOT,MEAN_MOTION_DDOT,TLE_LINE0,TLE_LINE1,TLE_LINE2,SEMIMAJOR_AXIS,PERIOD,APOGEE,PERIGEE,DECAYED
53779.0,STARLINK-4706,PAYLOAD,2023-02-28 14:25:05,15.08840078,0.0001277,53.2161,195.175,99.2005,260.9132,-6.727e-06,-3.95e-06,0.0,0 STARLINK-4706,1 53779U 22111G   23059.60075852 -.00000395  00000-0 -67270-5 0  9996,2 53779  53.2161 195.1750 0001277  99.2005 260.9132 15.08840078 26058,6917.88,95.438,540.629,538.862,0.0
53779.0,STARLINK-4706,PAYLOAD,2023-02-28 19:11:14,15.08848974,0.0001491,53.216,194.2805,107.4735,252.642,3.859e-05,3.26e-06,0.0,0 STARLINK-4706,1 53779U 22111G   23059.79947252  .00000326  00000-0  38590-4 0  9992,2 53779  53.2160 194.2805 0001491 107.4735 252.6420 15.08848974 26891,6917.853,95.437,540.749,538.687,0.0
53779.0,STARLINK-4706,PAYLOAD,2023-03-01 01:32:47,15.08833438,0.0001926,53.2158,193.0919,83.303,276.8181,-5.7125e-05,-1.197e-05,0.0,0 STARLINK-4706,1 53779U 22111G   23060.06444124 -.00001197  00000-0 -57125-4 0  9998,2 53779  53.2158 193.0919 0001926  83.3030 276.8181 15.08833438 26121,6917.9,95.438,541.098,538.433,0.0
53779.0,STARLINK-4706,PAYLOAD,2023-03-01 15:51:16,15.08824527,0.0001346,53.2166,190.4192,111.1545,248.9591,-0.00021591,-3.721e-05,0.0,0 STARLINK-4706,1 53779U 22111G   23060.66061199 -.00003721  00000-0 -21591-3 0  9993,2 53779  53.2166 190.4192 0001346 111.1545 248.9591 15.08824527 26215,6917.928,95.439,540.724,538.862,0.0
53779.0,STARLINK-4706,PAYLOAD,2023-03-02 01:23:35,15.08834399,0.0001485,53.2176,188.6343,107.0732,253.0422,-1.596e-05,-5.42e-06,0.0,0 STARLINK-4706,1 53779U 22111G   23061.05805029 -.00000542  00000-0 -15960-4 0  9997,2 53779  53.2176 188.6343 0001485 107.0732 253.0422 15.08834399 26273,6917.898,95.438,540.79,538.735,0.0
53779.0,STARLINK-4706,PAYLOAD,2023-03-02 17:17:26,15.08871424,0.0001258,53.2152,185.6595,101.6334,258.4799,0.0014045,0.00022155,0.0,0 STARLINK-4706,1 53779U 22111G   23061.72044511  .00022155  00000-0  14045-2 0  9995,2 53779  53.2152 185.6595 0001258 101.6334 258.4799 15.08871424 27186,6917.784,95.436,540.52,538.779,0.0
53779.0,STARLINK-4706,PAYLOAD,2023-03-03 09:11:17,15.0887861,0.0001153,53.2166,182.6863,100.8021,259.3101,0.0011533,0.00018134,0.0,0 STARLINK-4706,1 53779U 22111G   23062.38283721  .00018134  00000-0  11533-2 0  9997,2 53779  53.2166 182.6863 0001153 100.8021 259.3101 15.08878610 26476,6917.762,95.435,540.425,538.83,0.0
53779.0,STARLINK-4706,PAYLOAD,2023-03-03 17:08:12,15.08877424,0.0001342,53.2141,181.1975,94.1875,265.9271,0.001404,0.0002215,0.0,0 STARLINK-4706,1 53779U 22111G   23062.71403217  .00022150  00000-0  14040-2 0  9997,2 53779  53.2141 181.1975 0001342  94.1875 265.9271 15.08877424 26528,6917.766,95.435,540.559,538.703,0.0
53779.0,STARLINK-4706,PAYLOAD,2023-03-04 07:26:41,15.08833633,0.0001115,53.2152,178.5221,98.8435,261.2683,0.00089129,0.00013923,0.0,0 STARLINK-4706,1 53779U 22111G   23063.31020144  .00013923  00000-0  89129-3 0  9997,2 53779  53.2152 178.5221 0001115  98.8435 261.2683 15.08833633 26615,6917.9,95.438,540.536,538.994,0.0
53779.0,STARLINK-4706,PAYLOAD,2023-03-04 13:48:14,15.08839947,0.0001272,53.2152,177.3327,98.4509,261.6627,0.0020533,0.00032541,0.0,0 STARLINK-4706,1 53779U 22111G   23063.57516319  .00032541  00000-0  20533-2 0  9999,2 53779  53.2152 177.3327 0001272  98.4509 261.6627 15.08839947 27461,6917.881,95.438,540.626,538.866,0.0
53779.0,STARLINK-4706,PAYLOAD,2023-03-05 00:55:56,15.0883774,0.000167,53.2156,175.2515,102.2608,257.8572,0.0015012,0.00023683,0.0,0 STARLINK-4706,1 53779U 22111G   23064.03885004  .00023683  00000-0  15012-2 0  9994,2 53779  53.2156 175.2515 0001670 102.2608 257.8572 15.08837740 26720,6917.887,95.438,540.908,538.597,0.0
53779.0,STARLINK-4706,PAYLOAD,2023-03-06 11:54:25,15.08859165,0.0001539,53.2164,168.7093,112.7414,247.3741,0.00076569,0.00011925,0.0,0 STARLINK-4706,1 53779U 22111G   23065.49612695  .00011925  00000-0  76569-3 0  9990,2 53779  53.2164 168.7093 0001539 112.7414 247.3741 15.08859165 26943,6917.822,95.436,540.751,538.622,0.0
53779.0,STARLINK-4706,PAYLOAD,2023-03-06 18:15:57,15.08885949,0.0001065,53.216,167.5205,97.6724,262.4389,0.001503,0.00023743,0.0,0 STARLINK-4706,1 53779U 22111G   23065.76107799  .00023743  00000-0  15030-2 0  9990,2 53779  53.2160 167.5205 0001065  97.6724 262.4389 15.08885949 26989,6917.74,95.435,540.342,538.868,0.0
53779.0,STARLINK-4706,PAYLOAD,2023-03-07 06:59:03,15.08828005,0.0001296,53.2164,165.1416,123.32,236.7916,0.00052612,8.092e-05,0.0,0 STARLINK-4706,1 53779U 22111G   23066.29101241  .00008092  00000-0  52612-3 0  9993,2 53779  53.2164 165.1416 0001296 123.3200 236.7916 15.08828005 27063,6917.917,95.438,540.679,538.885,0.0
53779.0,STARLINK-4706,PAYLOAD,2023-03-07 18:06:45,15.08877881,0.0001074,53.2163,163.0603,117.7806,242.3295,0.0037318,0.00059668,0.0,0 STARLINK-4706,1 53779U 22111G   23066.75468957  .00059668  00000-0  37318-2 0  9994,2 53779  53.2163 163.0603 0001074 117.7806 242.3295 15.08877881 27137,6917.765,95.435,540.373,538.887,0.0
53779.0,STARLINK-4706,PAYLOAD,2023-03-08 05:14:27,15.08821929,9.22e-05,53.2162,160.9793,94.7781,265.3317,0.0022639,0.00035908,0.0,0 STARLINK-4706,1 53779U 22111G   23067.21837698  .00035908  00000-0  22639-2 0  9999,2 53779  53.2162 160.9793 0000922  94.7781 265.3317 15.08821929 27209,6917.936,95.439,540.438,539.163,0.0
53779.0,STARLINK-4706,PAYLOAD,2023-03-08 16:22:09,15.08878602,8.93e-05,53.216,158.8976,100.9941,259.1152,0.0034132,0.00054511,0.0,0 STARLINK-4706,1 53779U 22111G   23067.68205278  .00054511  00000-0  34132-2 0  9995,2 53779  53.2160 158.8976 0000893 100.9941 259.1152 15.08878602 27276,6917.762,95.435,540.245,539.01,0.0
53779.0,STARLINK-4706,PAYLOAD,2023-03-08 21:08:19,15.08830286,0.0001342,53.216,158.0057,68.6059,291.5076,0.0013848,0.00021814,0.0,0 STARLINK-4706,1 53779U 22111G   23067.88077839  .00021814  00000-0  13848-2 0  9998,2 53779  53.2160 158.0057 0001342  68.6059 291.5076 15.08830286 28113,6917.91,95.438,540.703,538.847,0.0
53779.0,STARLINK-4706,PAYLOAD,2023-03-08 22:43:42,15.08853537,9.71e-05,53.2158,157.7081,107.1831,252.9268,0.0012972,0.00020425,0.0,0 STARLINK-4706,1 53779U 22111G   23067.94701537  .00020425  00000-0  12972-2 0  9998,2 53779  53.2158 157.7081 0000971 107.1831 252.9268 15.08853537 27316,6917.839,95.437,540.376,539.032,0.0
53779.0,STARLINK-4706,PAYLOAD,2023-03-09 17:48:18,15.08930855,0.0001002,53.2152,154.1398,115.1104,244.9992,0.0044036,0.00070674,0.0,0 STARLINK-4706,1 53779U 22111G   23068.74187521  .00070674  00000-0  44036-2 0  9995,2 53779  53.2152 154.1398 0001002 115.1104 244.9992 15.08930855 27437,6917.603,95.432,540.161,538.775,0.0
53779.0,STARLINK-4706,PAYLOAD,2023-03-09 20:59:05,15.08834237,0.0002438,53.215,153.5455,50.4163,309.7044,0.0013295,0.00020931,0.0,0 STARLINK-4706,1 53779U 22111G   23068.87436841  .00020931  00000-0  13295-2 0  9995,2 53779  53.2150 153.5455 0002438  50.4163 309.7044 15.08834237 28269,6917.898,95.438,541.45,538.076,0.0
53779.0,STARLINK-4706,PAYLOAD,2023-03-10 04:56:00,15.08835901,0.0001258,53.2147,152.0587,83.4984,276.6152,0.0038419,0.00061382,0.0,0 STARLINK-4706,1 53779U 22111G   23069.20556498  .00061382  00000-0  38419-2 0  9994,2 53779  53.2147 152.0587 0001258  83.4984 276.6152 15.08835901 27508,6917.893,95.438,540.628,538.888,0.0
53779.0,STARLINK-4706,PAYLOAD,2023-03-10 20:49:52,15.08796934,0.0002142,53.2143,149.085,67.8762,292.2457,-0.00033367,-5.589e-05,0.0,0 STARLINK-4706,1 53779U 22111G   23069.86796871 -.00005589  00000-0 -33367-3 0  9994,2 53779  53.2143 149.0850 0002142  67.8762 292.2457 15.08796934 28411,6918.012,95.44,541.359,538.395,0.0
53779.0,STARLINK-4706,PAYLOAD,2023-03-11 04:46:48,15.08788759,0.0001337,53.2141,147.5983,109.4372,250.6764,0.003415,0.00054405,0.0,0 STARLINK-4706,1 53779U 22111G   23070.19917475  .00054405  00000-0  34150-2 0  9996,2 53779  53.2141 147.5983 0001337 109.4372 250.6764 15.08788759 27654,6918.037,95.441,540.827,538.977,0.0
53779.0,STARLINK-4706,PAYLOAD,2023-03-11 12:43:44,15.08822906,0.0001347,53.2141,146.1108,111.9278,248.1857,0.0031154,0.0004962,0.0,0 STARLINK-4706,1 53779U 22111G   23070.53038146  .00049620  00000-0  31154-2 0  9997,2 53779  53.2141 146.1108 0001347 111.9278 248.1857 15.08822906 28516,6917.933,95.439,540.729,538.866,0.0
53779.0,STARLINK-4706,PAYLOAD,2023-03-11 20:40:41,15.08815104,0.0001328,53.2141,144.6244,93.9108,266.2036,0.0017453,0.00027579,0.0,0 STARLINK-4706,1 53779U 22111G   23070.86158803  .00027579  00000-0  17453-2 0  9991,2 53779  53.2141 144.6244 0001328  93.9108 266.2036 15.08815104 28567,6917.956,95.439,540.74,538.903,0.0
53779.0,STARLINK-4706,PAYLOAD,2023-03-12 07:48:23,15.08847414,0.0001464,53.2141,142.5419,108.5642,251.5509,0.0021862,0.00034684,0.0,0 STARLINK-4706,1 53779U 22111G   23071.32527079  .00034684  00000-0  21862-2 0  9992,2 53779  53.2141 142.5419 0001464 108.5642 251.5509 15.08847414 27824,6917.858,95.437,540.736,538.71,0.0
53779.0,STARLINK-4706,PAYLOAD,2023-03-12 12:34:32,15.08862285,0.0001353,53.2143,141.6502,99.8471,260.2674,0.0027443,0.00043685,0.0,0 STARLINK-4706,1 53779U 22111G   23071.52398977  .00043685  00000-0  27443-2 0  9999,2 53779  53.2143 141.6502 0001353  99.8471 260.2674 15.08862285 28664,6917.812,95.436,540.613,538.741,0.0
53779.0,STARLINK-4706,PAYLOAD,2023-03-12 18:56:05,15.08849677,0.0001226,53.2142,140.4603,105.2233,254.8894,0.0010117,0.00015854,0.0,0 STARLINK-4706,1 53779U 22111G   23071.78894902  .00015854  00000-0  10117-2 0  9993,2 53779  53.2142 140.4603 0001226 105.2233 254.8894 15.08849677 27896,6917.851,95.437,540.564,538.868,0.0
53779.0,STARLINK-4706,PAYLOAD,2023-03-13 14:00:41,15.08883496,0.0001074,53.2145,136.8918,92.9633,267.1483,0.0023788,0.00037819,0.0,0 STARLINK-4706,1 53779U 22111G   23072.58381877  .00037819  00000-0  23788-2 0  9997,2 53779  53.2145 136.8918 0001074  92.9633 267.1483 15.08883496 28826,6917.747,95.435,540.355,538.869,0.0
